0 FENGYUN 1C DEB
1 36718U 99025EAQ 13282.41519750  .00024731  00000-0  29005-2 0  2671
2 36718 099.0998 149.0393 0062239 134.2311 226.3765 14.83556986255319
0 FENGYUN 1C DEB
1 36718U 99025EAQ 13282.88731886  .00026800  00000-0  31429-2 0  2681
2 36718 099.1097 149.5624 0060929 134.6509 226.0799 14.83596412255388
0 FENGYUN 1C DEB
1 36718U 99025EAQ 13285.85467007  .00039880  00000-0  46191-2 0  2697
2 36718 099.1094 152.9593 0063489 126.3145 235.3983 14.83881456255828
0 FENGYUN 1C DEB
1 36718U 99025EAQ 13287.80987591  .00040796  00000-0  46935-2 0  2705
2 36718 099.1007 155.1995 0065941 120.0322 240.6284 14.84034537256113
0 FENGYUN 1C DEB
1 36718U 99025EAQ 13288.41670320  .00040172  00000-0  46275-2 0  2718
2 36718 099.0993 155.8866 0064072 117.0955 243.5996 14.84076355256208
0 FENGYUN 1C DEB
1 36718U 99025EAQ 13290.43926794  .00042024  00000-0  48152-2 0  2727
2 36718 099.1033 158.1992 0064514 112.9986 248.0096 14.84258835256508
0 FENGYUN 1C DEB
1 36718U 99025EAQ 13291.45040608  .00043086  00000-0  49260-2 0  2732
2 36718 099.1017 159.3572 0064208 109.9277 250.9891 14.84355282256651
0 FENGYUN 1C DEB
1 36718U 99025EAQ 13292.86592385  .00044807  00000-0  51198-2 0  2748
2 36718 099.0704 160.9418 0061443 096.6035 264.2177 14.84492467256867
0 FENGYUN 1C DEB
1 36718U 99025EAQ 13293.87693785  .00046085  00000-0  52725-2 0  2754
2 36718 099.0684 162.0458 0057733 095.9867 264.9032 14.84591906257016
0 FENGYUN 1C DEB
1 36718U 99025EAQ 13295.42700747  .00046243  00000-0  52725-2 0  2761
2 36718 099.0684 163.8073 0057654 091.0915 269.6902 14.84734079257244
